[{"OBJECT_NAME":"STARLINK-30525","OBJECT_ID":"2023-153X","EPOCH":"2026-03-09T00:02:31.628544","MEAN_MOTION":15.26741269,"ECCENTRICITY":0.00018693,"INCLINATION":43.0059,"RA_OF_ASC_NODE":70.7104,"ARG_OF_PERICENTER":287.6945,"MEAN_ANOMALY":72.3702,"EPHEMERIS_TYPE":0,"CLASSIFICATION_TYPE":"U","NORAD_CAT_ID":58012,"ELEMENT_SET_NO":999,"REV_AT_EPOCH":13479,"BSTAR":4.6237044e-5,"MEAN_MOTION_DOT":9.8e-6,"MEAN_MOTION_DDOT":0},{"OBJECT_NAME":"GESAT GEN1","OBJECT_ID":"2025-009D","EPOCH":"2026-03-09T17:26:20.087232","MEAN_MOTION":15.26847505,"ECCENTRICITY":8.879e-5,"INCLINATION":97.4058,"RA_OF_ASC_NODE":151.4598,"ARG_OF_PERICENTER":98.3547,"MEAN_ANOMALY":261.7793,"EPHEMERIS_TYPE":0,"CLASSIFICATION_TYPE":"U","NORAD_CAT_ID":62612,"ELEMENT_SET_NO":999,"REV_AT_EPOCH":6373,"BSTAR":0.00038326131,"MEAN_MOTION_DOT":0.00010041,"MEAN_MOTION_DDOT":0}]
